QIANFAN-177             
1 69394U 26124N   26191.91960469 -.01970746  00000+0 -13654+1 0  9993
2 69394  88.9985 359.3370 0001343  96.1296 264.0038 14.02994754  5186
QIANFAN-178             
1 69395U 26124P   26193.84318676 -.01856699  00000+0 -13567+1 0  9998
2 69395  88.9986 359.1235 0004750 106.5404 253.6297 13.99762571  5454
QIANFAN-179             
1 69396U 26124Q   26191.90605235 -.01990179  00000+0 -13278+1 0  9995
2 69396  88.9989 359.3352 0005884 167.9589 192.1734 14.05136706  5180
QIANFAN-180             
1 69397U 26124R   26191.97521780 -.01973779  00000+0 -13583+1 0  9991
2 69397  88.9987 359.3274 0004029 195.8033 164.3023 14.03377414  5190
QIANFAN-181             
1 69398U 26124S   26191.97833230 -.02078372  00000+0 -16546+1 0  9996
2 69398  88.9987 359.3645 0010281  58.7422 301.4760 13.95314354  5173
QIANFAN-182             
1 69399U 26124T   26191.93317473 -.02005570  00000+0 -15301+1 0  9997
2 69399  88.9985 359.3577 0009641  69.9856 290.2359 13.97601621  5165
QIANFAN-183             
1 69401U 26125A   26193.75621091 -.01953953  00000+0 -14914+1 0  9993
2 69401  88.9938 277.5700 0022316  95.5106 264.8617 13.97372483  5315
QIANFAN-184             
1 69402U 26125B   26193.74337510 -.01919880  00000+0 -14635+1 0  9994
2 69402  88.9946 277.5681 0022603  90.9181 269.4586 13.97374480  5319
QIANFAN-185             
1 69403U 26125C   26193.82473115  .00000021  00000+0  40860-5 0  9995
2 69403  88.9950 277.5609 0018512  89.5838 270.7465 14.05242991  5325
QIANFAN-186             
1 69404U 26125D   26193.73060914 -.01817078  00000+0 -14198+1 0  9996
2 69404  88.9945 277.5659 0022567  94.7727 265.6027 13.96411149  5313
QIANFAN-187             
1 69405U 26125E   26193.71074382 -.01971334  00000+0 -14704+1 0  9998
2 69405  88.9941 277.5627 0020349  91.0020 269.3489 13.98735952  5313
QIANFAN-188             
1 69406U 26125F   26193.75645125 -.01940311  00000+0 -14074+1 0  9993
2 69406  88.9937 277.5502 0017399  93.6015 266.7154 14.00279837  5324
QIANFAN-189             
1 69407U 26125G   26193.84124451 -.01973118  00000+0 -14539+1 0  9995
2 69407  88.9941 277.5450 0018763  88.0100 272.3227 13.99444175  5321
QIANFAN-190             
1 69408U 26125H   26193.76412892 -.01966003  00000+0 -14778+1 0  9996
2 69408  88.9944 277.5527 0022244  89.8117 270.5610 13.98268515  5323
QIANFAN-191             
1 69409U 26125J   26191.96453417 -.02010350  00000+0 -13901+1 0  9998
2 69409  88.9941 277.7488 0014434 116.0535 244.2134 14.03135274  5071
QIANFAN-192             
1 69410U 26125K   26193.73387706 -.01808087  00000+0 -13388+1 0  9994
2 69410  88.9944 277.5483 0019218  93.3848 266.9530 13.99478130  5322
