{"fetched_at":"2026-07-13T07:47:58.237Z","source":"https://celestrak.org/NORAD/elements/gp.php?GROUP=qianfan&FORMAT=JSON","constellation":"qianfan","records":[{"OBJECT_NAME":"QIANFAN-177","OBJECT_ID":"2026-124N","EPOCH":"2026-07-10T22:04:13.845216","CLASSIFICATION_TYPE":"U","MEAN_MOTION":14.02994754,"ECCENTRICITY":0.00013438,"INCLINATION":88.9985,"RA_OF_ASC_NODE":359.337,"ARG_OF_PERICENTER":96.1296,"MEAN_ANOMALY":264.0038,"EPHEMERIS_TYPE":0,"NORAD_CAT_ID":69394,"ELEMENT_SET_NO":999,"REV_AT_EPOCH":518,"BSTAR":-1.3653999,"MEAN_MOTION_DOT":-0.01970746,"MEAN_MOTION_DDOT":0},{"OBJECT_NAME":"QIANFAN-178","OBJECT_ID":"2026-124P","EPOCH":"2026-07-12T20:14:11.336064","CLASSIFICATION_TYPE":"U","MEAN_MOTION":13.99762571,"ECCENTRICITY":0.000475,"INCLINATION":88.9986,"RA_OF_ASC_NODE":359.1235,"ARG_OF_PERICENTER":106.5404,"MEAN_ANOMALY":253.6297,"EPHEMERIS_TYPE":0,"NORAD_CAT_ID":69395,"ELEMENT_SET_NO":999,"REV_AT_EPOCH":545,"BSTAR":-1.3567,"MEAN_MOTION_DOT":-0.01856699,"MEAN_MOTION_DDOT":0},{"OBJECT_NAME":"QIANFAN-179","OBJECT_ID":"2026-124Q","EPOCH":"2026-07-10T21:44:42.923040","CLASSIFICATION_TYPE":"U","MEAN_MOTION":14.05136706,"ECCENTRICITY":0.00058848,"INCLINATION":88.9989,"RA_OF_ASC_NODE":359.3352,"ARG_OF_PERICENTER":167.9589,"MEAN_ANOMALY":192.1734,"EPHEMERIS_TYPE":0,"NORAD_CAT_ID":69396,"ELEMENT_SET_NO":999,"REV_AT_EPOCH":518,"BSTAR":-1.3277652,"MEAN_MOTION_DOT":-0.01990179,"MEAN_MOTION_DDOT":0},{"OBJECT_NAME":"QIANFAN-180","OBJECT_ID":"2026-124R","EPOCH":"2026-07-10T23:24:18.817920","CLASSIFICATION_TYPE":"U","MEAN_MOTION":14.03377414,"ECCENTRICITY":0.00040299,"INCLINATION":88.9987,"RA_OF_ASC_NODE":359.3274,"ARG_OF_PERICENTER":195.8033,"MEAN_ANOMALY":164.3023,"EPHEMERIS_TYPE":0,"NORAD_CAT_ID":69397,"ELEMENT_SET_NO":999,"REV_AT_EPOCH":519,"BSTAR":-1.3582563,"MEAN_MOTION_DOT":-0.01973779,"MEAN_MOTION_DDOT":0},{"OBJECT_NAME":"QIANFAN-181","OBJECT_ID":"2026-124S","EPOCH":"2026-07-10T23:28:47.910720","CLASSIFICATION_TYPE":"U","MEAN_MOTION":13.95314354,"ECCENTRICITY":0.00102817,"INCLINATION":88.9987,"RA_OF_ASC_NODE":359.3645,"ARG_OF_PERICENTER":58.7422,"MEAN_ANOMALY":301.476,"EPHEMERIS_TYPE":0,"NORAD_CAT_ID":69398,"ELEMENT_SET_NO":999,"REV_AT_EPOCH":517,"BSTAR":-1.6546388,"MEAN_MOTION_DOT":-0.02078372,"MEAN_MOTION_DDOT":0},{"OBJECT_NAME":"QIANFAN-182","OBJECT_ID":"2026-124T","EPOCH":"2026-07-10T22:23:46.296672","CLASSIFICATION_TYPE":"U","MEAN_MOTION":13.97601621,"ECCENTRICITY":0.00096414,"INCLINATION":88.9985,"RA_OF_ASC_NODE":359.3577,"ARG_OF_PERICENTER":69.9856,"MEAN_ANOMALY":290.2359,"EPHEMERIS_TYPE":0,"NORAD_CAT_ID":69399,"ELEMENT_SET_NO":999,"REV_AT_EPOCH":516,"BSTAR":-1.5300725,"MEAN_MOTION_DOT":-0.0200557,"MEAN_MOTION_DDOT":0},{"OBJECT_NAME":"QIANFAN-183","OBJECT_ID":"2026-125A","EPOCH":"2026-07-12T18:08:56.622624","CLASSIFICATION_TYPE":"U","MEAN_MOTION":13.97372483,"ECCENTRICITY":0.0022316,"INCLINATION":88.9938,"RA_OF_ASC_NODE":277.57,"ARG_OF_PERICENTER":95.5106,"MEAN_ANOMALY":264.8617,"EPHEMERIS_TYPE":0,"NORAD_CAT_ID":69401,"ELEMENT_SET_NO":999,"REV_AT_EPOCH":531,"BSTAR":-1.4914,"MEAN_MOTION_DOT":-0.01953953,"MEAN_MOTION_DDOT":0},{"OBJECT_NAME":"QIANFAN-184","OBJECT_ID":"2026-125B","EPOCH":"2026-07-12T17:50:27.608640","CLASSIFICATION_TYPE":"U","MEAN_MOTION":13.9737448,"ECCENTRICITY":0.0022603,"INCLINATION":88.9946,"RA_OF_ASC_NODE":277.5681,"ARG_OF_PERICENTER":90.9181,"MEAN_ANOMALY":269.4586,"EPHEMERIS_TYPE":0,"NORAD_CAT_ID":69402,"ELEMENT_SET_NO":999,"REV_AT_EPOCH":531,"BSTAR":-1.4635,"MEAN_MOTION_DOT":-0.0191988,"MEAN_MOTION_DDOT":0},{"OBJECT_NAME":"QIANFAN-185","OBJECT_ID":"2026-125C","EPOCH":"2026-07-12T19:47:36.771360","CLASSIFICATION_TYPE":"U","MEAN_MOTION":14.05242991,"ECCENTRICITY":0.0018512,"INCLINATION":88.995,"RA_OF_ASC_NODE":277.5609,"ARG_OF_PERICENTER":89.5838,"MEAN_ANOMALY":270.7465,"EPHEMERIS_TYPE":0,"NORAD_CAT_ID":69403,"ELEMENT_SET_NO":999,"REV_AT_EPOCH":532,"BSTAR":0.000004086,"MEAN_MOTION_DOT":2.1e-7,"MEAN_MOTION_DDOT":0},{"OBJECT_NAME":"QIANFAN-186","OBJECT_ID":"2026-125D","EPOCH":"2026-07-12T17:32:04.629696","CLASSIFICATION_TYPE":"U","MEAN_MOTION":13.96411149,"ECCENTRICITY":0.0022567,"INCLINATION":88.9945,"RA_OF_ASC_NODE":277.5659,"ARG_OF_PERICENTER":94.7727,"MEAN_ANOMALY":265.6027,"EPHEMERIS_TYPE":0,"NORAD_CAT_ID":69404,"ELEMENT_SET_NO":999,"REV_AT_EPOCH":531,"BSTAR":-1.4198,"MEAN_MOTION_DOT":-0.01817078,"MEAN_MOTION_DDOT":0},{"OBJECT_NAME":"QIANFAN-187","OBJECT_ID":"2026-125E","EPOCH":"2026-07-12T17:03:28.266048","CLASSIFICATION_TYPE":"U","MEAN_MOTION":13.98735952,"ECCENTRICITY":0.0020349,"INCLINATION":88.9941,"RA_OF_ASC_NODE":277.5627,"ARG_OF_PERICENTER":91.002,"MEAN_ANOMALY":269.3489,"EPHEMERIS_TYPE":0,"NORAD_CAT_ID":69405,"ELEMENT_SET_NO":999,"REV_AT_EPOCH":531,"BSTAR":-1.4704,"MEAN_MOTION_DOT":-0.01971334,"MEAN_MOTION_DDOT":0},{"OBJECT_NAME":"QIANFAN-188","OBJECT_ID":"2026-125F","EPOCH":"2026-07-12T18:09:17.388000","CLASSIFICATION_TYPE":"U","MEAN_MOTION":14.00279837,"ECCENTRICITY":0.0017399,"INCLINATION":88.9937,"RA_OF_ASC_NODE":277.5502,"ARG_OF_PERICENTER":93.6015,"MEAN_ANOMALY":266.7154,"EPHEMERIS_TYPE":0,"NORAD_CAT_ID":69406,"ELEMENT_SET_NO":999,"REV_AT_EPOCH":532,"BSTAR":-1.4074,"MEAN_MOTION_DOT":-0.01940311,"MEAN_MOTION_DDOT":0},{"OBJECT_NAME":"QIANFAN-189","OBJECT_ID":"2026-125G","EPOCH":"2026-07-12T20:11:23.525664","CLASSIFICATION_TYPE":"U","MEAN_MOTION":13.99444175,"ECCENTRICITY":0.0018763,"INCLINATION":88.9941,"RA_OF_ASC_NODE":277.545,"ARG_OF_PERICENTER":88.01,"MEAN_ANOMALY":272.3227,"EPHEMERIS_TYPE":0,"NORAD_CAT_ID":69407,"ELEMENT_SET_NO":999,"REV_AT_EPOCH":532,"BSTAR":-1.4539,"MEAN_MOTION_DOT":-0.01973118,"MEAN_MOTION_DDOT":0},{"OBJECT_NAME":"QIANFAN-190","OBJECT_ID":"2026-125H","EPOCH":"2026-07-12T18:20:20.738688","CLASSIFICATION_TYPE":"U","MEAN_MOTION":13.98268515,"ECCENTRICITY":0.0022244,"INCLINATION":88.9944,"RA_OF_ASC_NODE":277.5527,"ARG_OF_PERICENTER":89.8117,"MEAN_ANOMALY":270.561,"EPHEMERIS_TYPE":0,"NORAD_CAT_ID":69408,"ELEMENT_SET_NO":999,"REV_AT_EPOCH":532,"BSTAR":-1.4778,"MEAN_MOTION_DOT":-0.01966003,"MEAN_MOTION_DDOT":0},{"OBJECT_NAME":"QIANFAN-191","OBJECT_ID":"2026-125J","EPOCH":"2026-07-10T23:08:55.752288","CLASSIFICATION_TYPE":"U","MEAN_MOTION":14.03135274,"ECCENTRICITY":0.00144349,"INCLINATION":88.9941,"RA_OF_ASC_NODE":277.7488,"ARG_OF_PERICENTER":116.0535,"MEAN_ANOMALY":244.2134,"EPHEMERIS_TYPE":0,"NORAD_CAT_ID":69409,"ELEMENT_SET_NO":999,"REV_AT_EPOCH":507,"BSTAR":-1.3900906,"MEAN_MOTION_DOT":-0.0201035,"MEAN_MOTION_DDOT":0},{"OBJECT_NAME":"QIANFAN-192","OBJECT_ID":"2026-125K","EPOCH":"2026-07-12T17:36:46.977984","CLASSIFICATION_TYPE":"U","MEAN_MOTION":13.9947813,"ECCENTRICITY":0.0019218,"INCLINATION":88.9944,"RA_OF_ASC_NODE":277.5483,"ARG_OF_PERICENTER":93.3848,"MEAN_ANOMALY":266.953,"EPHEMERIS_TYPE":0,"NORAD_CAT_ID":69410,"ELEMENT_SET_NO":999,"REV_AT_EPOCH":532,"BSTAR":-1.3388,"MEAN_MOTION_DOT":-0.01808087,"MEAN_MOTION_DDOT":0}]}
